[
    {
        "name":"Alton",
        "postcode":"GU34 2QS"
    },
    {
        "name":"Ashford",
        "postcode":"TN23 7DH"
    },
    {
        "name":"Aylesbury",
        "postcode":"HP20 1DH"
    },
    {
        "name":"Bagshot",
        "postcode":"GU19 5DG"
    },
    {
        "name":"Basildon",
        "postcode":"SS13 3BY"
    },
    {
        "name":"Basildon_Pipps_Hill",
        "postcode":"SS14 3AF"
    },
    {
        "name":"Basingstoke",
        "postcode":"RG22 4TT"
    },
    {
        "name":"Battersea",
        "postcode":"SW11 3RX"
    },
    {
        "name":"Beckton",
        "postcode":"E6 6LG"
    },
    {
        "name":"Bexhill",
        "postcode":"TN40 2JS"
    },
    {
        "name":"Blackheath",
        "postcode":"SE10 8DA"
    },
    {
        "name":"Bletchley",
        "postcode":"MK1 1BN"
    },
    {
        "name":"Bognor_Regis",
        "postcode":"PO22 9NF"
    },
    {
        "name":"Borehamwood",
        "postcode":"WD6 4PR"
    },
    {
        "name":"Bracknell",
        "postcode":"RG12 1EN"
    },
    {
        "name":"Brentford",
        "postcode":"TW8 8JW"
    },
    {
        "name":"Broadstairs",
        "postcode":"CT10 2RQ"
    },
    {
        "name":"Buckingham",
        "postcode":"MK18 1TB"
    },
    {
        "name":"Burgess_Hill",
        "postcode":"RH15 9QT"
    },
    {
        "name":"Byfleet",
        "postcode":"KT14 7NP"
    },
    {
        "name":"Camden",
        "postcode":"NW1 9EX"
    },
    {
        "name":"Canterbury",
        "postcode":"CT1 3TQ"
    },
    {
        "name":"Canterbury_Sturry_Road",
        "postcode":"CT1 1DX"
    },
    {
        "name":"Charlton",
        "postcode":"SE7 7TZ"
    },
    {
        "name":"Chatham",
        "postcode":"ME5 9SQ"
    },
    {
        "name":"Chelmsford",
        "postcode":"CM2 6XE"
    },
    {
        "name":"Chichester",
        "postcode":"PO19 7YH"
    },
    {
        "name":"Chingford",
        "postcode":"E4 8JA"
    },
    {
        "name":"Crawley",
        "postcode":"RH11 7ST"
    },
    {
        "name":"Crayford",
        "postcode":"DA1 4LD"
    },
    {
        "name":"Croydon",
        "postcode":"CR0 4NX"
    },
    {
        "name":"Dagenham",
        "postcode":"RM9 6SJ"
    },
    {
        "name":"Dorking",
        "postcode":"RH4 1RU"
    },
    {
        "name":"Dover",
        "postcode":"CT16 3PS"
    },
    {
        "name":"Dunstable",
        "postcode":"LU5 4XZ"
    },
    {
        "name":"East_Grinstead",
        "postcode":"RH19 1QL"
    },
    {
        "name":"Eastbourne",
        "postcode":"BN23 6QD"
    },
    {
        "name":"Eltham",
        "postcode":"SE9 5LT"
    },
    {
        "name":"Enfield",
        "postcode":"EN1 1TH"
    },
    {
        "name":"Farnborough",
        "postcode":"GU14 7QL"
    },
    {
        "name":"Farnham",
        "postcode":"GU9 9QJ"
    },
    {
        "name":"Feltham",
        "postcode":"TW13 4EX"
    },
    {
        "name":"Folkestone",
        "postcode":"CT19 5SY"
    },
    {
        "name":"Friern_Barnet",
        "postcode":"N11 3PW"
    },
    {
        "name":"Gillingham",
        "postcode":"ME8 0PU"
    },
    {
        "name":"Godalming",
        "postcode":"GU7 1DR"
    },
    {
        "name":"Gravesend",
        "postcode":"DA11 0DQ"
    },
    {
        "name":"Greenford",
        "postcode":"UB6 0UW"
    },
    {
        "name":"Harlow",
        "postcode":"CM20 2SX"
    },
    {
        "name":"Hastings",
        "postcode":"TN37 7PB"
    },
    {
        "name":"Hatfield",
        "postcode":"AL9 5JP"
    },
    {
        "name":"Havant",
        "postcode":"PO9 1ND"
    },
    {
        "name":"Hayes",
        "postcode":"UB4 0TU"
    },
    {
        "name":"Hemel_Hempstead",
        "postcode":"HP3 9AA"
    },
    {
        "name":"Hendon",
        "postcode":"NW9 7TH"
    },
    {
        "name":"Hertford",
        "postcode":"SG13 7RQ"
    },
    {
        "name":"High_Wycombe",
        "postcode":"HP11 1FY"
    },
    {
        "name":"Horsham",
        "postcode":"RH12 1HR"
    },
    {
        "name":"Hove",
        "postcode":"BN3 7PN"
    },
    {
        "name":"Ilford",
        "postcode":"IG2 6BE"
    },
    {
        "name":"Luton",
        "postcode":"LU1 3JH"
    },
    {
        "name":"Maidenhead",
        "postcode":"SL6 1AY"
    },
    {
        "name":"Maidstone",
        "postcode":"ME20 7TP"
    },
    {
        "name":"New_Malden",
        "postcode":"SW20 0JQ"
    },
    {
        "name":"Newhaven",
        "postcode":"BN9 0AG"
    },
    {
        "name":"Old_Kent_Road",
        "postcode":"SE1 5BA"
    },
    {
        "name":"Orpington",
        "postcode":"BR5 3RP"
    },
    {
        "name":"Portsmouth",
        "postcode":"PO3 5LZ"
    },
    {
        "name":"Rayleigh",
        "postcode":"SS67UP"
    },
    {
        "name":"Reading",
        "postcode":"RG2 0HB"
    },
    {
        "name":"Redhill",
        "postcode":"RH1 6QL"
    },
    {
        "name":"Richmond",
        "postcode":"TW9 1YB"
    },
    {
        "name":"Romford",
        "postcode":"RM7 0AN"
    },
    {
        "name":"Ruislip",
        "postcode":"HA4 0LN"
    },
    {
        "name":"Rustington",
        "postcode":"BN16 3RT"
    },
    {
        "name":"Sevenoaks",
        "postcode":"TN14 5EW"
    },
    {
        "name":"Sittingbourne",
        "postcode":"ME10 2XD"
    },
    {
        "name":"Slough",
        "postcode":"SL1 4XB"
    },
    {
        "name":"Southend-on-Sea",
        "postcode":"SS2 6FW"
    },
    {
        "name":"Southend_Victoria",
        "postcode":"SS1 1PA"
    },
    {
        "name":"St_Albans",
        "postcode":"AL1 2RJ"
    },
    {
        "name":"Sydenham",
        "postcode":"SE26 4PU"
    },
    {
        "name":"Thamesmead",
        "postcode":"SE28 8RD"
    },
    {
        "name":"Thurrock",
        "postcode":"RM20 3LP"
    },
    {
        "name":"Tilehurst",
        "postcode":"RG30 1PR"
    },
    {
        "name":"Tunbridge_Wells",
        "postcode":"TN2 3FB"
    },
    {
        "name":"Waltham_Abbey",
        "postcode":"EN9 1BY"
    },
    {
        "name":"Walton_On_Thames",
        "postcode":"KT12 2SS"
    },
    {
        "name":"Watford",
        "postcode":"WD17 2SF"
    },
    {
        "name":"West_Drayton",
        "postcode":"UB8 2TE"
    },
    {
        "name":"Wimbledon",
        "postcode":"SW17 0BW"
    },
    {
        "name":"Winnersh",
        "postcode":"RG41 5HH"
    },
    {
        "name":"Woking",
        "postcode":"GU22 8BD"
    },
    {
        "name":"Wokingham",
        "postcode":"RG40 2NU"
    },
    {
        "name":"Worthing",
        "postcode":"BN14 9GB"
    }
]